NORAD_CAT_ID,OBJECT_NAME,OBJECT_TYPE,EPOCH,MEAN_MOTION,ECCENTRICITY,INCLINATION,RA_OF_ASC_NODE,ARG_OF_PERICENTER,MEAN_ANOMALY,BSTAR,MEAN_MOTION_DOT,MEAN_MOTION_DDOT,TLE_LINE0,TLE_LINE1,TLE_LINE2,SEMIMAJOR_AXIS,PERIOD,APOGEE,PERIGEE,DECAYED
51880.0,STARLINK-3566,PAYLOAD,2022-04-21 14:00:01,15.53679227,0.0001202,53.2177,262.6384,68.8055,244.6281,-0.011992,-0.00713521,0.0,0 STARLINK-3566,1 51880U 22022AE  22111.58334491 -.00713521  00000-0 -11992-1 0  9998,2 51880  53.2177 262.6384 0001202  68.8055 244.6281 15.53679227  3701,6784.132,92.683,406.812,405.181,0.0
51880.0,STARLINK-3566,PAYLOAD,2022-04-21 22:00:00,15.53168374,0.0001012,53.2172,261.0373,86.9178,291.6762,-0.012174,-0.0071113,0.0,0 STARLINK-3566,1 51880U 22022AE  22111.91667824 -.00711130  00000-0 -12174-1 0  9991,2 51880  53.2172 261.0373 0001012  86.9178 291.6762 15.53168374  3716,6785.619000000002,92.714,408.171,406.797,0.0
51880.0,STARLINK-3566,PAYLOAD,2022-04-22 14:00:01,15.5214755,0.0001404,53.2173,257.8357,56.9666,90.1123,-0.012625,-0.0071072,0.0,0 STARLINK-3566,1 51880U 22022AE  22112.58334491 -.00710720  00000-0 -12625-1 0  9991,2 51880  53.2173 257.8357 0001404  56.9666  90.1123 15.52147550  3711,6788.594,92.775,411.412,409.506,0.0
51880.0,STARLINK-3566,PAYLOAD,2022-04-22 22:00:00,15.51638649,0.0001392,53.2171,256.2381,58.1226,152.2778,-0.012884,-0.00711966,0.0,0 STARLINK-3566,1 51880U 22022AE  22112.91667824 -.00711966  00000-0 -12884-1 0  9997,2 51880  53.2171 256.2381 0001392  58.1226 152.2778 15.51638649  9121,6790.078,92.805,412.888,410.99800000000016,0.0
51880.0,STARLINK-3566,PAYLOAD,2022-04-23 14:00:01,15.50490858,0.0001302,53.217,253.0452,82.2468,253.0361,-0.010274,-0.00555821,0.0,0 STARLINK-3566,1 51880U 22022AE  22113.58334491 -.00555821  00000-0 -10274-1 0  9999,2 51880  53.2170 253.0452 0001302  82.2468 253.0361 15.50490858  3670,6793.429,92.874,416.17800000000005,414.409,0.0
51880.0,STARLINK-3566,PAYLOAD,2022-04-23 22:00:00,15.49963033,0.0001106,53.2172,251.4503,83.4259,313.285,-0.0021322,-0.00119958,0.0,0 STARLINK-3566,1 51880U 22022AE  22113.91667824 -.00119958  00000-0 -21322-2 0  9999,2 51880  53.2172 251.4503 0001106  83.4259 313.2850 15.49963033  9276,6794.971,92.905,417.588,416.085,0.0
51880.0,STARLINK-3566,PAYLOAD,2022-04-24 06:00:00,15.498865,0.0001173,53.2174,249.8552,67.6617,30.0036,-3.7651e-05,-2.587e-05,0.0,0 STARLINK-3566,1 51880U 22022AE  22114.25001157 -.00002587  00000-0 -37651-4 0  9991,2 51880  53.2174 249.8552 0001173  67.6617  30.0036 15.49886500  9328,6795.195,92.91,417.857,416.263,0.0
51880.0,STARLINK-3566,PAYLOAD,2022-04-24 14:00:01,15.49927867,0.0001475,53.2136,248.2714,63.4485,95.3023,-4.947e-05,-3.263e-05,0.0,0 STARLINK-3566,1 51880U 22022AE  22114.58334491 -.00003263  00000-0 -49470-4 0  9991,2 51880  53.2136 248.2714 0001475  63.4485  95.3023 15.49927867  9389,6795.074000000001,92.908,417.941,415.937,0.0
51880.0,STARLINK-3566,PAYLOAD,2022-04-25 06:00:00,15.49856481,0.0001203,53.213,245.0835,65.4383,215.2086,0.00092282,0.00052221,0.0,0 STARLINK-3566,1 51880U 22022AE  22115.25001157  .00052221  00000-0  92282-3 0  9990,2 51880  53.2130 245.0835 0001203  65.4383 215.2086 15.49856481  9486,6795.283,92.912,417.965,416.33,0.0
51880.0,STARLINK-3566,PAYLOAD,2022-04-25 14:00:01,15.49897055,0.0001426,53.2131,243.4919,61.04,280.5194,-0.001407,-0.00079535,0.0,0 STARLINK-3566,1 51880U 22022AE  22115.58334491 -.00079535  00000-0 -14070-2 0  9993,2 51880  53.2131 243.4919 0001426  61.0400 280.5194 15.49897055  3718,6795.1640000000025,92.909,417.99800000000016,416.06,0.0
51880.0,STARLINK-3566,PAYLOAD,2022-04-25 22:00:00,15.49854454,0.0001499,53.2128,241.899,57.5616,344.8771,0.00019178,0.00010436,0.0,0 STARLINK-3566,1 51880U 22022AE  22115.91667824  .00010436  00000-0  19178-3 0  9997,2 51880  53.2128 241.8990 0001499  57.5616 344.8771 15.49854454  9586,6795.288000000001,92.912,418.172,416.135,0.0
51880.0,STARLINK-3566,PAYLOAD,2022-04-26 14:00:01,15.49887121,0.0001506,53.2134,238.7125,59.88399999999999,104.3957,-4.9318e-06,-7.31e-06,0.0,0 STARLINK-3566,1 51880U 22022AE  22116.58335648 -.00000731  00000-0 -49318-5 0  9997,2 51880  53.2134 238.7125 0001506  59.8840 104.3957 15.49887121  3699,6795.193,92.91,418.081,416.035,0.0
51880.0,STARLINK-3566,PAYLOAD,2022-04-26 22:00:00,15.49909022,0.0001499,53.2138,237.1197,54.9293,170.1956,-4.2256e-05,-2.851e-05,0.0,0 STARLINK-3566,1 51880U 22022AE  22116.91667824 -.00002851  00000-0 -42256-4 0  9996,2 51880  53.2138 237.1197 0001499  54.9293 170.1956 15.49909022  9741,6795.129,92.909,418.013,415.975,0.0
51880.0,STARLINK-3566,PAYLOAD,2022-04-27 14:00:01,15.49955756,0.0001522,53.2141,233.9328,53.7034,293.3724,-0.0018185,-0.00102579,0.0,0 STARLINK-3566,1 51880U 22022AE  22117.58335648 -.00102579  00000-0 -18185-2 0  9996,2 51880  53.2141 233.9328 0001522  53.7034 293.3724 15.49955756  3652,6794.9919999999975,92.906,417.892,415.823,0.0
51880.0,STARLINK-3566,PAYLOAD,2022-04-28 06:00:00,15.49890689,0.0001312,53.2143,230.7448,53.9702,54.9269,0.00096744,0.00054853,0.0,0 STARLINK-3566,1 51880U 22022AE  22118.25001157  .00054853  00000-0  96744-3 0  9993,2 51880  53.2143 230.7448 0001312  53.9702  54.9269 15.49890689  9949,6795.183000000001,92.91,417.939,416.156,0.0
51880.0,STARLINK-3566,PAYLOAD,2022-04-28 14:00:01,15.49939983,0.0001426,53.2141,229.1535,43.7846,126.0571,-0.0016938,-0.00095606,0.0,0 STARLINK-3566,1 51880U 22022AE  22118.58334491 -.00095606  00000-0 -16938-2 0  9998,2 51880  53.2141 229.1535 0001426  43.7846 126.0571 15.49939983 10005,6795.038000000001,92.907,417.872,415.935,0.0
51880.0,STARLINK-3566,PAYLOAD,2022-04-28 20:00:01,15.49878239,0.0001444,53.2136,227.9587,38.7314,86.8313,0.00063755,0.0003589,0.0,0 STARLINK-3566,1 51880U 22022AE  22118.83334491  .00035890  00000-0  63755-3 0  9993,2 51880  53.2136 227.9587 0001444  38.7314  86.8313 15.49878239 10043,6795.219,92.911,418.065,416.103,0.0
51880.0,STARLINK-3566,PAYLOAD,2022-04-29 06:00:00,15.49857228,0.0001346,53.214,225.9655,52.4915,239.2284,0.00029677,0.00016411,0.0,0 STARLINK-3566,1 51880U 22022AE  22119.25001157  .00016411  00000-0  29677-3 0  9993,2 51880  53.2140 225.9655 0001346  52.4915 239.2284 15.49857228 10106,6795.28,92.912,418.06,416.231,0.0
51880.0,STARLINK-3566,PAYLOAD,2022-04-29 14:00:01,15.49866352,0.0001597,53.2139,224.3744,47.4412,305.1657,0.00013781,7.372e-05,0.0,0 STARLINK-3566,1 51880U 22022AE  22119.58334491  .00007372  00000-0  13781-3 0  9994,2 51880  53.2139 224.3744 0001597  47.4412 305.1657 15.49866352  3703,6795.254,92.911,418.204,416.033,0.0
51880.0,STARLINK-3566,PAYLOAD,2022-04-29 22:00:00,15.49904324,0.0001631999999999,53.2138,222.7808,48.0897,5.405,-0.0017905999999999,-0.00100852,0.0,0 STARLINK-3566,1 51880U 22022AE  22119.91667824 -.00100852  00000-0 -17906-2 0  9991,2 51880  53.2138 222.7808 0001632  48.0897   5.4050 15.49904324  3674,6795.143,92.909,418.117,415.899,0.0
51880.0,STARLINK-3566,PAYLOAD,2022-04-30 06:00:00,15.49830115,0.000164,53.2142,221.1864,57.9047,56.4841,0.00091556,0.00051755,0.0,0 STARLINK-3566,1 51880U 22022AE  22120.25001157  .00051755  00000-0  91556-3 0  9990,2 51880  53.2142 221.1864 0001640  57.9047  56.4841 15.49830115 10251,6795.36,92.913,418.339,416.11,0.0
51880.0,STARLINK-3566,PAYLOAD,2022-04-30 12:00:00,15.49860871,0.0001768,53.2143,219.9933,52.4613,17.5661,-0.00019526,-0.00011508,0.0,0 STARLINK-3566,1 51880U 22022AE  22120.50001157 -.00011508  00000-0 -19526-3 0  9999,2 51880  53.2143 219.9933 0001768  52.4613  17.5661 15.49860871 10298,6795.27,92.912,418.336,415.9330000000001,0.0
51880.0,STARLINK-3566,PAYLOAD,2022-04-30 14:00:01,15.49848859,0.0001827,53.2143,219.5954,50.4862,124.7638,0.00030863,0.00017081,0.0,0 STARLINK-3566,1 51880U 22022AE  22120.58334491  .00017081  00000-0  30863-3 0  9994,2 51880  53.2143 219.5954 0001827  50.4862 124.7638 15.49848859  3667,6795.305,92.912,418.411,415.92800000000005,0.0
51880.0,STARLINK-3566,PAYLOAD,2022-04-30 22:00:00,15.49892485,0.0001785,53.2143,218.0017,49.5882,186.5409,-0.00027665,-0.00016125,0.0,0 STARLINK-3566,1 51880U 22022AE  22120.91667824 -.00016125  00000-0 -27665-3 0  9996,2 51880  53.2143 218.0017 0001785  49.5882 186.5409 15.49892485 10366,6795.177,92.91,418.255,415.829,0.0
51880.0,STARLINK-3566,PAYLOAD,2022-05-01 14:00:01,15.49915578,0.0001904,53.2145,214.8164,47.8692,310.0849,-0.00085505,-0.00048734,0.0,0 STARLINK-3566,1 51880U 22022AE  22121.58334491 -.00048734  00000-0 -85505-3 0  9999,2 51880  53.2145 214.8164 0001904  47.8692 310.0849 15.49915578 10460,6795.11,92.908,418.269,415.681,0.0
51880.0,STARLINK-3566,PAYLOAD,2022-05-01 22:00:01,15.49882006,0.0001725,53.2141,213.2223,44.6298,14.3256,-0.00063883,-0.00036537,0.0,0 STARLINK-3566,1 51880U 22022AE  22121.91668981 -.00036537  00000-0 -63883-3 0  9993,2 51880  53.2141 213.2223 0001725  44.6298  14.3256 15.49882006  3684,6795.208000000001,92.91,418.245,415.901,0.0
51880.0,STARLINK-3566,PAYLOAD,2022-05-02 06:00:00,15.49863136,0.000166,53.2142,211.6285,50.3795,69.3968,0.00050597,0.00028347,0.0,0 STARLINK-3566,1 51880U 22022AE  22122.25001157  .00028347  00000-0  50597-3 0  9993,2 51880  53.2142 211.6285 0001660  50.3795  69.3968 15.49863136 10578,6795.263000000001,92.911,418.256,416.0,0.0
51880.0,STARLINK-3566,PAYLOAD,2022-05-02 14:00:01,15.49866867,0.0001866,53.2137,210.0375,43.7101,136.9673,0.00040336,0.00022493,0.0,0 STARLINK-3566,1 51880U 22022AE  22122.58334491  .00022493  00000-0  40336-3 0  9995,2 51880  53.2137 210.0375 0001866  43.7101 136.9673 15.49866867  3671,6795.252,92.911,418.385,415.849,0.0
51880.0,STARLINK-3566,PAYLOAD,2022-05-02 22:00:01,15.49918634,0.0001664,53.2145,208.4403,47.9474,193.6869,-0.0011718,-0.00066477,0.0,0 STARLINK-3566,1 51880U 22022AE  22122.91668981 -.00066477  00000-0 -11718-2 0  9999,2 51880  53.2145 208.4403 0001664  47.9474 193.6869 15.49918634 10673,6795.101,92.908,418.097,415.835,0.0
